NUSAT-50 (NANCY ROMAN)  
1 60493U 24149AB  26068.80227738  .00012094  00000+0  42252-3 0  9994
2 60493  97.3817 150.7693 0002523 238.0469 122.0527 15.29713355 86930
STARLINK-32654          
1 62322U 24239X   26068.61104601  .00029345  00000+0  99922-3 0  9992
2 62322  53.1603 194.1570 0001109  56.0007 304.1099 15.30193069 69379
